SL-14 R/B               
1 21423U 91042B   26033.30632130  .00000396  00000+0  47165-4 0  9994
2 21423  82.4905 253.3705 0017104   2.6491 357.4810 14.81795175847838
ERS-1                   
1 21574U 91050A   26033.52447547  .00000405  00000+0  14430-3 0  9999
2 21574  98.7895  50.8749 0031072 307.8165  52.0210 14.39419033810672
ARIANE 40 R/B           
1 21610U 91050F   26033.10424628  .00000325  00000+0  10981-3 0  9997
2 21610  98.2085  86.6633 0003439 161.7690 198.3625 14.42865482813869
INTERCOSMOS 25          
1 21819U 91086A   26033.32060599  .00000800  00000+0  15468-3 0  9997
2 21819  82.6090 331.3814 1486498 193.1386 162.6578 12.11903303492409
SL-8 R/B                
1 21876U 92008B   26033.66333072  .00000078  00000+0  64925-4 0  9991
2 21876  82.9275 293.8338 0033540 231.3816 145.8166 13.75969117704601
SL-8 R/B                
1 21938U 92020B   26033.40500998  .00000109  00000+0  96993-4 0  9994
2 21938  82.9320 179.9519 0029674  38.4954 339.9623 13.75543702696284
USA 81                  
1 21949U 92023A   26033.38049026  .00000227  00000+0  76583-4 0  9990
2 21949  85.0118 151.7994 0002451 108.8172 251.3287 14.32353753 89736
COSMOS 2219             
1 22219U 92076A   26033.57616481 -.00000227  00000+0 -94400-4 0  9995
2 22219  71.0592  91.4765 0020596 255.7119 104.1716 14.14077850713419
SL-16 R/B               
1 22220U 92076B   26033.05249006  .00000278  00000+0  16258-3 0  9993
2 22220  70.9985 263.4442 0011968 158.8783 307.3813 14.16852236716780
COSMOS 2221             
1 22236U 92080A   26033.25733243  .00002504  00000+0  22042-3 0  9990
2 22236  82.5068 313.0119 0013369 317.6776  42.3413 14.96049275775499
SL-16 R/B               
1 22285U 92093B   26033.47503856 -.00000223  00000+0 -90019-4 0  9995
2 22285  71.0208  78.1940 0004972 330.5098  29.5744 14.15442332708171
COSMOS 2228             
1 22286U 92094A   26033.63103111  .00001707  00000+0  14548-3 0  9993
2 22286  82.5165 270.8810 0019431  61.9897 298.3288 14.97026008770813
