CCSDS_OMM_VERS = 2.0
CREATION_DATE  = 
ORIGINATOR     = 

OBJECT_NAME    = SL-14 R/B
OBJECT_ID      = 1991-042B
CENTER_NAME    = EARTH
REF_FRAME      = TEME
TIME_SYSTEM    = UTC
MEAN_ELEMENT_THEORY = SGP/SGP4

EPOCH          = 2026-02-02T07:21:06.160320
MEAN_MOTION    = 14.81795175
ECCENTRICITY   = .0017104
INCLINATION    = 82.4905
RA_OF_ASC_NODE = 253.3705
ARG_OF_PERICENTER = 2.6491
MEAN_ANOMALY   = 357.4810

EPHEMERIS_TYPE = 0
CLASSIFICATION_TYPE = U
NORAD_CAT_ID   = 21423
ELEMENT_SET_NO = 999
REV_AT_EPOCH   = 84783
BSTAR          = .47165E-4
MEAN_MOTION_DOT = .396E-5
MEAN_MOTION_DDOT = 0

CCSDS_OMM_VERS = 2.0
CREATION_DATE  = 
ORIGINATOR     = 

OBJECT_NAME    = ERS-1
OBJECT_ID      = 1991-050A
CENTER_NAME    = EARTH
REF_FRAME      = TEME
TIME_SYSTEM    = UTC
MEAN_ELEMENT_THEORY = SGP/SGP4

EPOCH          = 2026-02-02T12:35:14.680608
MEAN_MOTION    = 14.39419033
ECCENTRICITY   = .00310725
INCLINATION    = 98.7895
RA_OF_ASC_NODE = 50.8749
ARG_OF_PERICENTER = 307.8165
MEAN_ANOMALY   = 52.0210

EPHEMERIS_TYPE = 0
CLASSIFICATION_TYPE = U
NORAD_CAT_ID   = 21574
ELEMENT_SET_NO = 999
REV_AT_EPOCH   = 81067
BSTAR          = .14429881E-3
MEAN_MOTION_DOT = .405E-5
MEAN_MOTION_DDOT = 0

CCSDS_OMM_VERS = 2.0
CREATION_DATE  = 
ORIGINATOR     = 

OBJECT_NAME    = ARIANE 40 R/B
OBJECT_ID      = 1991-050F
CENTER_NAME    = EARTH
REF_FRAME      = TEME
TIME_SYSTEM    = UTC
MEAN_ELEMENT_THEORY = SGP/SGP4

EPOCH          = 2026-02-02T02:30:06.878592
MEAN_MOTION    = 14.42865482
ECCENTRICITY   = .0003439
INCLINATION    = 98.2085
RA_OF_ASC_NODE = 86.6633
ARG_OF_PERICENTER = 161.7690
MEAN_ANOMALY   = 198.3625

EPHEMERIS_TYPE = 0
CLASSIFICATION_TYPE = U
NORAD_CAT_ID   = 21610
ELEMENT_SET_NO = 999
REV_AT_EPOCH   = 81386
BSTAR          = .10980723E-3
MEAN_MOTION_DOT = .325E-5
MEAN_MOTION_DDOT = 0

CCSDS_OMM_VERS = 2.0
CREATION_DATE  = 
ORIGINATOR     = 

OBJECT_NAME    = INTERCOSMOS 25
OBJECT_ID      = 1991-086A
CENTER_NAME    = EARTH
REF_FRAME      = TEME
TIME_SYSTEM    = UTC
MEAN_ELEMENT_THEORY = SGP/SGP4

EPOCH          = 2026-02-02T07:41:40.357536
MEAN_MOTION    = 12.11903303
ECCENTRICITY   = .14864981
INCLINATION    = 82.6090
RA_OF_ASC_NODE = 331.3814
ARG_OF_PERICENTER = 193.1386
MEAN_ANOMALY   = 162.6578

EPHEMERIS_TYPE = 0
CLASSIFICATION_TYPE = U
NORAD_CAT_ID   = 21819
ELEMENT_SET_NO = 999
REV_AT_EPOCH   = 49240
BSTAR          = .15467564E-3
MEAN_MOTION_DOT = .8E-5
MEAN_MOTION_DDOT = 0

CCSDS_OMM_VERS = 2.0
CREATION_DATE  = 
ORIGINATOR     = 

OBJECT_NAME    = SL-8 R/B
OBJECT_ID      = 1992-008B
CENTER_NAME    = EARTH
REF_FRAME      = TEME
TIME_SYSTEM    = UTC
MEAN_ELEMENT_THEORY = SGP/SGP4

EPOCH          = 2026-02-02T15:55:11.774208
MEAN_MOTION    = 13.75969117
ECCENTRICITY   = .00335406
INCLINATION    = 82.9275
RA_OF_ASC_NODE = 293.8338
ARG_OF_PERICENTER = 231.3816
MEAN_ANOMALY   = 145.8166

EPHEMERIS_TYPE = 0
CLASSIFICATION_TYPE = U
NORAD_CAT_ID   = 21876
ELEMENT_SET_NO = 999
REV_AT_EPOCH   = 70460
BSTAR          = .6492476E-4
MEAN_MOTION_DOT = .78E-6
MEAN_MOTION_DDOT = 0

CCSDS_OMM_VERS = 2.0
CREATION_DATE  = 
ORIGINATOR     = 

OBJECT_NAME    = SL-8 R/B
OBJECT_ID      = 1992-020B
CENTER_NAME    = EARTH
REF_FRAME      = TEME
TIME_SYSTEM    = UTC
MEAN_ELEMENT_THEORY = SGP/SGP4

EPOCH          = 2026-02-02T09:43:12.862272
MEAN_MOTION    = 13.75543702
ECCENTRICITY   = .00296742
INCLINATION    = 82.9320
RA_OF_ASC_NODE = 179.9519
ARG_OF_PERICENTER = 38.4954
MEAN_ANOMALY   = 339.9623

EPHEMERIS_TYPE = 0
CLASSIFICATION_TYPE = U
NORAD_CAT_ID   = 21938
ELEMENT_SET_NO = 999
REV_AT_EPOCH   = 69628
BSTAR          = .96992693E-4
MEAN_MOTION_DOT = .109E-5
MEAN_MOTION_DDOT = 0

CCSDS_OMM_VERS = 2.0
CREATION_DATE  = 
ORIGINATOR     = 

OBJECT_NAME    = USA 81
OBJECT_ID      = 1992-023A
CENTER_NAME    = EARTH
REF_FRAME      = TEME
TIME_SYSTEM    = UTC
MEAN_ELEMENT_THEORY = SGP/SGP4

EPOCH          = 2026-02-02T09:07:54.358464
MEAN_MOTION    = 14.32353753
ECCENTRICITY   = .00024511
INCLINATION    = 85.0118
RA_OF_ASC_NODE = 151.7994
ARG_OF_PERICENTER = 108.8172
MEAN_ANOMALY   = 251.3287

EPHEMERIS_TYPE = 0
CLASSIFICATION_TYPE = U
NORAD_CAT_ID   = 21949
ELEMENT_SET_NO = 999
REV_AT_EPOCH   = 8973
BSTAR          = .76583091E-4
MEAN_MOTION_DOT = .227E-5
MEAN_MOTION_DDOT = 0

CCSDS_OMM_VERS = 2.0
CREATION_DATE  = 
ORIGINATOR     = 

OBJECT_NAME    = COSMOS 2219
OBJECT_ID      = 1992-076A
CENTER_NAME    = EARTH
REF_FRAME      = TEME
TIME_SYSTEM    = UTC
MEAN_ELEMENT_THEORY = SGP/SGP4

EPOCH          = 2026-02-02T13:49:40.639584
MEAN_MOTION    = 14.14077850
ECCENTRICITY   = .00205968
INCLINATION    = 71.0592
RA_OF_ASC_NODE = 91.4765
ARG_OF_PERICENTER = 255.7119
MEAN_ANOMALY   = 104.1716

EPHEMERIS_TYPE = 0
CLASSIFICATION_TYPE = U
NORAD_CAT_ID   = 22219
ELEMENT_SET_NO = 999
REV_AT_EPOCH   = 71341
BSTAR          = -.94399733E-4
MEAN_MOTION_DOT = -.227E-5
MEAN_MOTION_DDOT = 0

CCSDS_OMM_VERS = 2.0
CREATION_DATE  = 
ORIGINATOR     = 

OBJECT_NAME    = SL-16 R/B
OBJECT_ID      = 1992-076B
CENTER_NAME    = EARTH
REF_FRAME      = TEME
TIME_SYSTEM    = UTC
MEAN_ELEMENT_THEORY = SGP/SGP4

EPOCH          = 2026-02-02T01:15:35.141184
MEAN_MOTION    = 14.16852236
ECCENTRICITY   = .00119685
INCLINATION    = 70.9985
RA_OF_ASC_NODE = 263.4442
ARG_OF_PERICENTER = 158.8783
MEAN_ANOMALY   = 307.3813

EPHEMERIS_TYPE = 0
CLASSIFICATION_TYPE = U
NORAD_CAT_ID   = 22220
ELEMENT_SET_NO = 999
REV_AT_EPOCH   = 71678
BSTAR          = .16258119E-3
MEAN_MOTION_DOT = .278E-5
MEAN_MOTION_DDOT = 0

CCSDS_OMM_VERS = 2.0
CREATION_DATE  = 
ORIGINATOR     = 

OBJECT_NAME    = COSMOS 2221
OBJECT_ID      = 1992-080A
CENTER_NAME    = EARTH
REF_FRAME      = TEME
TIME_SYSTEM    = UTC
MEAN_ELEMENT_THEORY = SGP/SGP4

EPOCH          = 2026-02-02T06:10:33.521952
MEAN_MOTION    = 14.96049275
ECCENTRICITY   = .0013369
INCLINATION    = 82.5068
RA_OF_ASC_NODE = 313.0119
ARG_OF_PERICENTER = 317.6776
MEAN_ANOMALY   = 42.3413

EPHEMERIS_TYPE = 0
CLASSIFICATION_TYPE = U
NORAD_CAT_ID   = 22236
ELEMENT_SET_NO = 999
REV_AT_EPOCH   = 77549
BSTAR          = .22042E-3
MEAN_MOTION_DOT = .2504E-4
MEAN_MOTION_DDOT = 0

CCSDS_OMM_VERS = 2.0
CREATION_DATE  = 
ORIGINATOR     = 

OBJECT_NAME    = SL-16 R/B
OBJECT_ID      = 1992-093B
CENTER_NAME    = EARTH
REF_FRAME      = TEME
TIME_SYSTEM    = UTC
MEAN_ELEMENT_THEORY = SGP/SGP4

EPOCH          = 2026-02-02T11:24:03.331584
MEAN_MOTION    = 14.15442332
ECCENTRICITY   = .00049725
INCLINATION    = 71.0208
RA_OF_ASC_NODE = 78.1940
ARG_OF_PERICENTER = 330.5098
MEAN_ANOMALY   = 29.5744

EPHEMERIS_TYPE = 0
CLASSIFICATION_TYPE = U
NORAD_CAT_ID   = 22285
ELEMENT_SET_NO = 999
REV_AT_EPOCH   = 70817
BSTAR          = -.90018901E-4
MEAN_MOTION_DOT = -.223E-5
MEAN_MOTION_DDOT = 0

CCSDS_OMM_VERS = 2.0
CREATION_DATE  = 
ORIGINATOR     = 

OBJECT_NAME    = COSMOS 2228
OBJECT_ID      = 1992-094A
CENTER_NAME    = EARTH
REF_FRAME      = TEME
TIME_SYSTEM    = UTC
MEAN_ELEMENT_THEORY = SGP/SGP4

EPOCH          = 2026-02-02T15:08:41.087904
MEAN_MOTION    = 14.97026008
ECCENTRICITY   = .00194315
INCLINATION    = 82.5165
RA_OF_ASC_NODE = 270.8810
ARG_OF_PERICENTER = 61.9897
MEAN_ANOMALY   = 298.3288

EPHEMERIS_TYPE = 0
CLASSIFICATION_TYPE = U
NORAD_CAT_ID   = 22286
ELEMENT_SET_NO = 999
REV_AT_EPOCH   = 77081
BSTAR          = .14547519E-3
MEAN_MOTION_DOT = .1707E-4
MEAN_MOTION_DDOT = 0

